ONEWEB-0456             
1 51646U 22012AA  23362.56089776 -.00000856  00000+0 -24883-2 0  9990
2 51646  87.8898 215.3357 0001704  92.2127 267.9195 13.10374989 91265
ONEWEB-0457             
1 51647U 22012AB  23362.61451432 -.00000255  00000+0 -76812-3 0  9992
2 51647  87.8903 215.3325 0001321  65.8750 294.2515 13.10371063 91271
ONEWEB-0458             
1 51648U 22012AC  23362.55927604 -.00000331  00000+0 -98437-3 0  9997
2 51648  87.8897 215.3542 0001388 101.1735 258.9548 13.10376063 91228
ONEWEB-0461             
1 51649U 22012AD  23362.56278202 -.00024484  00000+0 -63152-1 0  9991
2 51649  87.9196 185.1281 0001637  51.4780 308.6498 13.17768892 95155
ONEWEB-0463             
1 51650U 22012AE  23362.54540524  .00000005  00000+0 -20930-4 0  9992
2 51650  87.9201 185.1703 0001484  86.9579 273.1722 13.17648648 94939
ONEWEB-0464             
1 51651U 22012AF  23362.55602513 -.00000520  00000+0 -15263-2 0  9995
2 51651  87.8908 215.3464 0001590 100.7787 259.3519 13.10369743 91247
ONEWEB-0468             
1 51652U 22012AG  23362.56252621 -.00000297  00000+0 -88660-3 0  9991
2 51652  87.8910 215.3377 0001394  85.5308 274.5978 13.10370528 91224
ONEWEB-0473             
1 51653U 22012AH  23362.62426280 -.00000627  00000+0 -18323-2 0  9998
2 51653  87.8907 215.3296 0001342  96.1616 263.9665 13.10368301 91236
